SAUDISAT 1C (SO-50)     
1 27607U 02058C   24189.89033143  .00001924  00000+0  27661-3 0  9992
2 27607  64.5540 157.9068 0025817 101.6088 258.7916 14.79104287159591
SAUDISAT 2              
1 28371U 04025F   24189.94729045  .00000571  00000+0  14167-3 0  9990
2 28371  98.4839 163.4016 0024327 317.7915  42.1409 14.55535542 62564
FLYING LAPTOP           
1 42831U 17042G   24190.19500398  .00002515  00000+0  23292-3 0  9996
2 42831  97.3867   9.9231 0012996  14.0847 346.0734 14.95280167380275
SALSAT                  
1 46495U 20068K   24190.16835853  .00006737  00000+0  37975-3 0  9995
2 46495  97.8174 149.9933 0012176 237.2542 122.7515 15.13478519207484
